{
    "links": {
        "self": "http://www.neowsapp.com/rest/v1/neo/54049347?api_key=iIulBulltgU6a56xZRHN4H3l9WmuAYTsLGpBGhQ2"
    },
    "id": "54049347",
    "neo_reference_id": "54049347",
    "name": "(2020 OE3)",
    "designation": "2020 OE3",
    "nasa_jpl_url": "http://ssd.jpl.nasa.gov/sbdb.cgi?sstr=54049347",
    "absolute_magnitude_h": 25.49,
    "estimated_diameter": {
        "kilometers": {
            "estimated_diameter_min": 0.0212106988,
            "estimated_diameter_max": 0.0474285643
        },
        "meters": {
            "estimated_diameter_min": 21.2106987876,
            "estimated_diameter_max": 47.4285643393
        },
        "miles": {
            "estimated_diameter_min": 0.0131797131,
            "estimated_diameter_max": 0.0294707345
        },
        "feet": {
            "estimated_diameter_min": 69.5889090103,
            "estimated_diameter_max": 155.605531027
        }
    },
    "is_potentially_hazardous_asteroid": false,
    "close_approach_data": [
        {
            "close_approach_date": "2020-07-28",
            "close_approach_date_full": "2020-Jul-28 21:00",
            "epoch_date_close_approach": 1595970000000,
            "relative_velocity": {
                "kilometers_per_second": "7.2787943643",
                "kilometers_per_hour": "26203.6597113877",
                "miles_per_hour": "16281.9351134453"
            },
            "miss_distance": {
                "astronomical": "0.0959892967",
                "lunar": "37.3398364163",
                "kilometers": "14359794.329118029",
                "miles": "8922762.4421216402"
            },
            "orbiting_body": "Earth"
        }
    ],
    "orbital_data": {
        "orbit_id": "1",
        "orbit_determination_date": "2020-07-24 09:12:06",
        "first_observation_date": "2020-07-22",
        "last_observation_date": "2020-07-24",
        "data_arc_in_days": 2,
        "observations_used": 13,
        "orbit_uncertainty": "8",
        "minimum_orbit_intersection": ".0954014",
        "jupiter_tisserand_invariant": "3.566",
        "epoch_osculation": "2459053.5",
        "eccentricity": ".4796205209320257",
        "semi_major_axis": "2.114349740669654",
        "inclination": "8.843792832456927",
        "ascending_node_longitude": "116.3467313567848",
        "orbital_period": "1122.95839733808",
        "perihelion_distance": "1.100264216617181",
        "perihelion_argument": "200.7082603301412",
        "aphelion_distance": "3.128435264722127",
        "perihelion_time": "2459069.429412593768",
        "mean_anomaly": "354.8933205830688",
        "mean_motion": ".3205817783217643",
        "equinox": "J2000",
        "orbit_class": {
            "orbit_class_type": "AMO",
            "orbit_class_description": "Near-Earth asteroid orbits similar to that of 1221 Amor",
            "orbit_class_range": "1.017 AU < q (perihelion) < 1.3 AU"
        }
    },
    "is_sentry_object": false
}